start=new Date('2022-04-04T00:00:00.000Z').valueOf();
sats=[{"FILE":"3386965","CENTER_NAME":"EARTH","OBJECT_TYPE":"PAYLOAD","EPHEMERIS_TYPE":"0","NORAD_CAT_ID":"45670","APOAPSIS":"548.427","RCS_SIZE":"LARGE","REF_FRAME":"TEME","GP_ID":"200376059","RA_OF_ASC_NODE":"2.1611","TIME_SYSTEM":"UTC","PERIAPSIS":"546.108","MEAN_MOTION":"15.06382338","MEAN_ELEMENT_THEORY":"SGP4","EPOCH":"2022-04-03T21:27:46.822752","TLE_LINE2":"2 45670  53.0569   2.1611 0001674  51.9007 308.2132 15.06382338102633","INCLINATION":"53.0569","LAUNCH_DATE":"2020-06-04","DECAY_DATE":null,"ELEMENT_SET_NO":"999","OBJECT_ID":"2020-035P","MEAN_MOTION_DOT":"0.00003203","TLE_LINE1":"1 45670U 20035P   22093.89429193  .00003203  00000-0  23395-3 0  9996","COUNTRY_CODE":"US","MEAN_MOTION_DDOT":"0.0000000000000","PERIOD":"95.593","MEAN_ANOMALY":"308.2132","OBJECT_NAME":"STARLINK-1453","CLASSIFICATION_TYPE":"U","ARG_OF_PERICENTER":"51.9007","BSTAR":"0.00023395000000","ECCENTRICITY":"0.00016740","SITE":"AFETR","REV_AT_EPOCH":"10263","SEMIMAJOR_AXIS":"6925.403"},{"CLASSIFICATION_TYPE":"U","ARG_OF_PERICENTER":"61.8551","COUNTRY_CODE":"US","MEAN_MOTION_DDOT":"0.0000000000000","PERIOD":"95.592","MEAN_ANOMALY":"298.2595","OBJECT_NAME":"STARLINK-1454","SITE":"AFETR","REV_AT_EPOCH":"10221","SEMIMAJOR_AXIS":"6925.350","BSTAR":"-0.00015595000000","ECCENTRICITY":"0.00015580","EPHEMERIS_TYPE":"0","NORAD_CAT_ID":"45671","APOAPSIS":"548.294","GP_ID":"200376309","REF_FRAME":"TEME","RA_OF_ASC_NODE":"35.0734","TIME_SYSTEM":"UTC","RCS_SIZE":"LARGE","FILE":"3386965","CENTER_NAME":"EARTH","OBJECT_TYPE":"PAYLOAD","OBJECT_ID":"2020-035Q","MEAN_MOTION_DOT":"-0.00002604","TLE_LINE1":"1 45671U 20035Q   22093.24279409 -.00002604  00000-0 -15595-3 0  9998","EPOCH":"2022-04-03T05:49:37.409376","INCLINATION":"53.0559","TLE_LINE2":"2 45671  53.0559  35.0734 0001558  61.8551 298.2595 15.06399621102217","LAUNCH_DATE":"2020-06-04","PERIAPSIS":"546.136","MEAN_MOTION":"15.06399621","MEAN_ELEMENT_THEORY":"SGP4","ELEMENT_SET_NO":"999","DECAY_DATE":null},{"NORAD_CAT_ID":"45672","APOAPSIS":"548.324","EPHEMERIS_TYPE":"0","RCS_SIZE":"LARGE","TIME_SYSTEM":"UTC","GP_ID":"200377061","REF_FRAME":"TEME","RA_OF_ASC_NODE":"2.0638","FILE":"3386965","OBJECT_TYPE":"PAYLOAD","CENTER_NAME":"EARTH","MEAN_MOTION_DOT":"0.00006695","OBJECT_ID":"2020-035R","TLE_LINE1":"1 45672U 20035R   22093.91640310  .00006695  00000-0  46800-3 0  9991","PERIAPSIS":"546.126","MEAN_ELEMENT_THEORY":"SGP4","MEAN_MOTION":"15.06396294","LAUNCH_DATE":"2020-06-04","TLE_LINE2":"2 45672  53.0555   2.0638 0001587  65.8396 294.2759 15.06396294102743","INCLINATION":"53.0555","EPOCH":"2022-04-03T21:59:37.227840","ELEMENT_SET_NO":"999","DECAY_DATE":null,"ARG_OF_PERICENTER":"65.8396","CLASSIFICATION_TYPE":"U","MEAN_MOTION_DDOT":"0.0000000000000","COUNTRY_CODE":"US","OBJECT_NAME":"STARLINK-1455","MEAN_ANOMALY":"294.2759","PERIOD":"95.592","REV_AT_EPOCH":"10274","SITE":"AFETR","SEMIMAJOR_AXIS":"6925.360","BSTAR":"0.00046800000000","ECCENTRICITY":"0.00015870"},{"RCS_SIZE":"LARGE","GP_ID":"200377811","RA_OF_ASC_NODE":"32.6193","REF_FRAME":"TEME","TIME_SYSTEM":"UTC","EPHEMERIS_TYPE":"0","APOAPSIS":"548.256","NORAD_CAT_ID":"45673","CENTER_NAME":"EARTH","OBJECT_TYPE":"PAYLOAD","FILE":"3386965","TLE_LINE1":"1 45673U 20035S   22093.78832588  .00000759  00000-0  69832-4 0  9993","OBJECT_ID":"2020-035S","MEAN_MOTION_DOT":"0.00000759","ELEMENT_SET_NO":"999","DECAY_DATE":null,"MEAN_ELEMENT_THEORY":"SGP4","PERIAPSIS":"546.240","MEAN_MOTION":"15.06388796","EPOCH":"2022-04-03T18:55:11.356032","TLE_LINE2":"2 45673  53.0544  32.6193 0001456  58.3012 301.8119 15.06388796102310","LAUNCH_DATE":"2020-06-04","INCLINATION":"53.0544","CLASSIFICATION_TYPE":"U","ARG_OF_PERICENTER":"58.3012","MEAN_ANOMALY":"301.8119","PERIOD":"95.593","OBJECT_NAME":"STARLINK-1456","COUNTRY_CODE":"US","MEAN_MOTION_DDOT":"0.0000000000000","SEMIMAJOR_AXIS":"6925.383","SITE":"AFETR","REV_AT_EPOCH":"10231","ECCENTRICITY":"0.00014560","BSTAR":"0.00006983200000"},{"ARG_OF_PERICENTER":"62.3482","CLASSIFICATION_TYPE":"U","OBJECT_NAME":"STARLINK-1457","PERIOD":"95.592","MEAN_ANOMALY":"297.7647","MEAN_MOTION_DDOT":"0.0000000000000","COUNTRY_CODE":"US","SEMIMAJOR_AXIS":"6925.363","REV_AT_EPOCH":"10224","SITE":"AFETR","ECCENTRICITY":"0.00013850","BSTAR":"-0.00014361000000","RCS_SIZE":"LARGE","TIME_SYSTEM":"UTC","RA_OF_ASC_NODE":"33.7852","GP_ID":"200376559","REF_FRAME":"TEME","APOAPSIS":"548.187","NORAD_CAT_ID":"45674","EPHEMERIS_TYPE":"0","CENTER_NAME":"EARTH","OBJECT_TYPE":"PAYLOAD","FILE":"3386965","TLE_LINE1":"1 45674U 20035T   22093.53030106 -.00002420  00000-0 -14361-3 0  9998","MEAN_MOTION_DOT":"-0.00002420","OBJECT_ID":"2020-035T","DECAY_DATE":null,"ELEMENT_SET_NO":"999","PERIAPSIS":"546.269","MEAN_MOTION":"15.06395306","MEAN_ELEMENT_THEORY":"SGP4","INCLINATION":"53.0560","TLE_LINE2":"2 45674  53.0560  33.7852 0001385  62.3482 297.7647 15.06395306102246","LAUNCH_DATE":"2020-06-04","EPOCH":"2022-04-03T12:43:38.011584"},{"BSTAR":"-0.00017932000000","ECCENTRICITY":"0.00019500","SITE":"AFETR","REV_AT_EPOCH":"10228","SEMIMAJOR_AXIS":"6925.391","MEAN_MOTION_DDOT":"0.0000000000000","COUNTRY_CODE":"US","OBJECT_NAME":"STARLINK-1458","PERIOD":"95.593","MEAN_ANOMALY":"317.7385","ARG_OF_PERICENTER":"42.3754","CLASSIFICATION_TYPE":"U","LAUNCH_DATE":"2020-06-04","TLE_LINE2":"2 45675  53.0564  32.3423 0001950  42.3754 317.7385 15.06386078102280","INCLINATION":"53.0564","EPOCH":"2022-04-03T20:25:24.948480","MEAN_MOTION":"15.06386078","PERIAPSIS":"545.906","MEAN_ELEMENT_THEORY":"SGP4","DECAY_DATE":null,"ELEMENT_SET_NO":"999","MEAN_MOTION_DOT":"-0.00002951","OBJECT_ID":"2020-035U","TLE_LINE1":"1 45675U 20035U   22093.85098320 -.00002951  00000-0 -17932-3 0  9992","FILE":"3386965","OBJECT_TYPE":"PAYLOAD","CENTER_NAME":"EARTH","APOAPSIS":"548.607","NORAD_CAT_ID":"45675","EPHEMERIS_TYPE":"0","TIME_SYSTEM":"UTC","GP_ID":"200376809","REF_FRAME":"TEME","RA_OF_ASC_NODE":"32.3423","RCS_SIZE":"LARGE"},{"ARG_OF_PERICENTER":"55.2820","CLASSIFICATION_TYPE":"U","MEAN_MOTION_DDOT":"0.0000000000000","COUNTRY_CODE":"US","OBJECT_NAME":"STARLINK-1460","MEAN_ANOMALY":"304.8328","PERIOD":"95.593","REV_AT_EPOCH":"10227","SITE":"AFETR","SEMIMAJOR_AXIS":"6925.377","BSTAR":"-0.00007630600000","ECCENTRICITY":"0.00016960","NORAD_CAT_ID":"45676","APOAPSIS":"548.416","EPHEMERIS_TYPE":"0","RCS_SIZE":"LARGE","TIME_SYSTEM":"UTC","GP_ID":"200377561","REF_FRAME":"TEME","RA_OF_ASC_NODE":"32.4830","FILE":"3386965","CENTER_NAME":"EARTH","OBJECT_TYPE":"PAYLOAD","MEAN_MOTION_DOT":"-0.00001418","OBJECT_ID":"2020-035V","TLE_LINE1":"1 45676U 20035V   22093.82149379 -.00001418  00000-0 -76306-4 0  9999","PERIAPSIS":"546.067","MEAN_ELEMENT_THEORY":"SGP4","MEAN_MOTION":"15.06390878","TLE_LINE2":"2 45676  53.0569  32.4830 0001696  55.2820 304.8328 15.06390878102279","INCLINATION":"53.0569","LAUNCH_DATE":"2020-06-04","EPOCH":"2022-04-03T19:42:57.063456","DECAY_DATE":null,"ELEMENT_SET_NO":"999"},{"OBJECT_NAME":"STARLINK-1392","MEAN_ANOMALY":"308.7579","PERIOD":"95.593","MEAN_MOTION_DDOT":"0.0000000000000","COUNTRY_CODE":"US","ARG_OF_PERICENTER":"51.3553","CLASSIFICATION_TYPE":"U","ECCENTRICITY":"0.00015910","BSTAR":"-0.00017213000000","SEMIMAJOR_AXIS":"6925.396","SITE":"AFETR","REV_AT_EPOCH":"10231","CENTER_NAME":"EARTH","OBJECT_TYPE":"PAYLOAD","FILE":"3386965","TIME_SYSTEM":"UTC","GP_ID":"200377312","REF_FRAME":"TEME","RA_OF_ASC_NODE":"32.4317","RCS_SIZE":"LARGE","APOAPSIS":"548.363","NORAD_CAT_ID":"45677","EPHEMERIS_TYPE":"0","DECAY_DATE":null,"ELEMENT_SET_NO":"999","TLE_LINE2":"2 45677  53.0549  32.4317 0001591  51.3553 308.7579 15.06384359102315","INCLINATION":"53.0549","LAUNCH_DATE":"2020-06-04","EPOCH":"2022-04-03T19:58:52.769280","MEAN_MOTION":"15.06384359","PERIAPSIS":"546.160","MEAN_ELEMENT_THEORY":"SGP4","TLE_LINE1":"1 45677U 20035W   22093.83255520 -.00002843  00000-0 -17213-3 0  9991","MEAN_MOTION_DOT":"-0.00002843","OBJECT_ID":"2020-035W"},{"NORAD_CAT_ID":"45678","APOAPSIS":"548.518","EPHEMERIS_TYPE":"0","RCS_SIZE":"LARGE","TIME_SYSTEM":"UTC","GP_ID":"200376060","REF_FRAME":"TEME","RA_OF_ASC_NODE":"23.9369","FILE":"3386965","CENTER_NAME":"EARTH","OBJECT_TYPE":"PAYLOAD","MEAN_MOTION_DOT":"-0.00003001","OBJECT_ID":"2020-035X","TLE_LINE1":"1 45678U 20035X   22093.49436034 -.00003001  00000-0 -18272-3 0  9998","MEAN_ELEMENT_THEORY":"SGP4","PERIAPSIS":"545.992","MEAN_MOTION":"15.06386412","TLE_LINE2":"2 45678  53.0548  23.9369 0001824  55.2587 304.8573 15.06386412102386","LAUNCH_DATE":"2020-06-04","INCLINATION":"53.0548","EPOCH":"2022-04-03T11:51:52.733376","ELEMENT_SET_NO":"999","DECAY_DATE":null,"ARG_OF_PERICENTER":"55.2587","CLASSIFICATION_TYPE":"U","MEAN_MOTION_DDOT":"0.0000000000000","COUNTRY_CODE":"US","OBJECT_NAME":"STARLINK-1393","MEAN_ANOMALY":"304.8573","PERIOD":"95.593","SITE":"AFETR","REV_AT_EPOCH":"10238","SEMIMAJOR_AXIS":"6925.390","BSTAR":"-0.00018272000000","ECCENTRICITY":"0.00018240"},{"BSTAR":"-0.00005424400000","ECCENTRICITY":"0.00017480","REV_AT_EPOCH":"10245","SITE":"AFETR","SEMIMAJOR_AXIS":"6925.402","MEAN_MOTION_DDOT":"0.0000000000000","COUNTRY_CODE":"US","OBJECT_NAME":"STARLINK-1394","PERIOD":"95.593","MEAN_ANOMALY":"295.9770","ARG_OF_PERICENTER":"64.1399","CLASSIFICATION_TYPE":"U","PERIAPSIS":"546.056","MEAN_MOTION":"15.06382715","MEAN_ELEMENT_THEORY":"SGP4","LAUNCH_DATE":"2020-06-04","TLE_LINE2":"2 45679  53.0568  22.4534 0001748  64.1399 295.9770 15.06382715102451","INCLINATION":"53.0568","EPOCH":"2022-04-03T19:54:53.881920","ELEMENT_SET_NO":"999","DECAY_DATE":null,"MEAN_MOTION_DOT":"-0.00001089","OBJECT_ID":"2020-035Y","TLE_LINE1":"1 45679U 20035Y   22093.82979030 -.00001089  00000-0 -54244-4 0  9998","FILE":"3386965","CENTER_NAME":"EARTH","OBJECT_TYPE":"PAYLOAD","APOAPSIS":"548.477","NORAD_CAT_ID":"45679","EPHEMERIS_TYPE":"0","RCS_SIZE":"LARGE","TIME_SYSTEM":"UTC","RA_OF_ASC_NODE":"22.4534","GP_ID":"200376310","REF_FRAME":"TEME"}];
